IRIDIUM 136             
1 42962U 17061H   24215.80114312  .00000137  00000+0  41777-4 0  9992
2 42962  86.3991 310.8395 0002558  97.2265 262.9221 14.34218277356884
